[{"OBJECT_NAME":"STARLINK-4278","OBJECT_ID":"2022-083BC","EPOCH":"2026-03-09T10:55:33.298464","MEAN_MOTION":15.08842599,"ECCENTRICITY":0.00014936,"INCLINATION":53.2175,"RA_OF_ASC_NODE":140.166,"ARG_OF_PERICENTER":93.1625,"MEAN_ANOMALY":266.9538,"EPHEMERIS_TYPE":0,"CLASSIFICATION_TYPE":"U","NORAD_CAT_ID":53182,"ELEMENT_SET_NO":999,"REV_AT_EPOCH":20166,"BSTAR":4.2861899e-5,"MEAN_MOTION_DOT":3.94e-6,"MEAN_MOTION_DDOT":0},{"OBJECT_NAME":"YUNYAO-1 43","OBJECT_ID":"2025-059A","EPOCH":"2026-03-09T23:54:24.516576","MEAN_MOTION":15.10329109,"ECCENTRICITY":0.00157026,"INCLINATION":97.608,"RA_OF_ASC_NODE":250.9377,"ARG_OF_PERICENTER":132.1084,"MEAN_ANOMALY":228.1483,"EPHEMERIS_TYPE":0,"CLASSIFICATION_TYPE":"U","NORAD_CAT_ID":63344,"ELEMENT_SET_NO":999,"REV_AT_EPOCH":5332,"BSTAR":0.00032498885,"MEAN_MOTION_DOT":5.279e-5,"MEAN_MOTION_DDOT":0}]
